{
  "type": "FeatureCollection",
  "features": [
    {
      "type": "Feature",
      "properties": {
        "norad_id": 34497,
        "name": "IRIDIUM 33 DEB",
        "group": "iridium-33-debris",
        "lat": -48.86019342499694,
        "lon": -129.61875849237967,
        "alt_km": 780.9330549864817,
        "timestamp": "2025-12-27T11:23:20.286388+00:00",
        "meta_object_name": "IRIDIUM 33 DEB",
        "meta_object_id": "1997-051GN",
        "meta_epoch": "2025-12-22T21:33:03.136608",
        "meta_mean_motion": 14.27482363,
        "meta_eccentricity": 0.00780484,
        "meta_inclination": 86.2769,
        "meta_ra_of_asc_node": 48.0617,
        "meta_arg_of_pericenter": 306.2683,
        "meta_mean_anomaly": 179.2919,
        "meta_ephemeris_type": 0,
        "meta_classification_type": "U",
        "meta_norad_cat_id": 34497,
        "meta_element_set_no": 999,
        "meta_rev_at_epoch": 87028,
        "meta_bstar": 0.00056228088,
        "meta_mean_motion_dot": 1.443e-05,
        "meta_mean_motion_ddot": 0,
        "tle_line1": "1 34497U 97051GN  25356.89795297  .00001443  00000+0  56228-3 0  9993",
        "tle_line2": "2 34497  86.2769  48.0617 0078048 306.2683 179.2919 14.27482363870281"
      },
      "geometry": {
        "type": "Point",
        "coordinates": [
          -129.61875849237967,
          -48.86019342499694
        ]
      }
    },
    {
      "type": "Feature",
      "properties": {
        "norad_id": 34508,
        "name": "IRIDIUM 33 DEB",
        "group": "iridium-33-debris",
        "lat": -71.06664651914168,
        "lon": -72.9384952756868,
        "alt_km": 798.2856839350934,
        "timestamp": "2025-12-27T11:23:20.286398+00:00",
        "meta_object_name": "IRIDIUM 33 DEB",
        "meta_object_id": "1997-051GZ",
        "meta_epoch": "2025-12-26T19:12:17.155584",
        "meta_mean_motion": 14.38532192,
        "meta_eccentricity": 0.00667146,
        "meta_inclination": 86.3698,
        "meta_ra_of_asc_node": 96.6821,
        "meta_arg_of_pericenter": 127.9184,
        "meta_mean_anomaly": 232.8072,
        "meta_ephemeris_type": 0,
        "meta_classification_type": "U",
        "meta_norad_cat_id": 34508,
        "meta_element_set_no": 999,
        "meta_rev_at_epoch": 87511,
        "meta_bstar": 0.0012424793,
        "meta_mean_motion_dot": 3.917e-05,
        "meta_mean_motion_ddot": 0,
        "tle_line1": "1 34508U 97051GZ  25360.80019856  .00003917  00000+0  12425-2 0  9990",
        "tle_line2": "2 34508  86.3698  96.6821 0066714 127.9184 232.8072 14.38532192875114"
      },
      "geometry": {
        "type": "Point",
        "coordinates": [
          -72.9384952756868,
          -71.06664651914168
        ]
      }
    },
    {
      "type": "Feature",
      "properties": {
        "norad_id": 34521,
        "name": "IRIDIUM 33 DEB",
        "group": "iridium-33-debris",
        "lat": -50.19613943115887,
        "lon": 19.700975186489234,
        "alt_km": 690.9881337202078,
        "timestamp": "2025-12-27T11:23:20.286409+00:00",
        "meta_object_name": "IRIDIUM 33 DEB",
        "meta_object_id": "1997-051HN",
        "meta_epoch": "2025-12-27T01:46:22.234080",
        "meta_mean_motion": 14.63488583,
        "meta_eccentricity": 0.0003378,
        "meta_inclination": 86.3791,
        "meta_ra_of_asc_node": 24.2356,
        "meta_arg_of_pericenter": 161.084,
        "meta_mean_anomaly": 199.0498,
        "meta_ephemeris_type": 0,
        "meta_classification_type": "U",
        "meta_norad_cat_id": 34521,
        "meta_element_set_no": 999,
        "meta_rev_at_epoch": 88682,
        "meta_bstar": 0.0010644,
        "meta_mean_motion_dot": 5.535e-05,
        "meta_mean_motion_ddot": 0,
        "tle_line1": "1 34521U 97051HN  25361.07386845  .00005535  00000+0  10644-2 0  9999",
        "tle_line2": "2 34521  86.3791  24.2356 0003378 161.0840 199.0498 14.63488583886826"
      },
      "geometry": {
        "type": "Point",
        "coordinates": [
          19.700975186489234,
          -50.19613943115887
        ]
      }
    },
    {
      "type": "Feature",
      "properties": {
        "norad_id": 34525,
        "name": "IRIDIUM 33 DEB",
        "group": "iridium-33-debris",
        "lat": 56.95242083369365,
        "lon": -145.04359305844923,
        "alt_km": 741.3892381498863,
        "timestamp": "2025-12-27T11:23:20.286419+00:00",
        "meta_object_name": "IRIDIUM 33 DEB",
        "meta_object_id": "1997-051HS",
        "meta_epoch": "2025-12-27T02:46:13.062144",
        "meta_mean_motion": 14.42939848,
        "meta_eccentricity": 0.000612,
        "meta_inclination": 86.3716,
        "meta_ra_of_asc_node": 40.7068,
        "meta_arg_of_pericenter": 61.7573,
        "meta_mean_anomaly": 356.7447,
        "meta_ephemeris_type": 0,
        "meta_classification_type": "U",
        "meta_norad_cat_id": 34525,
        "meta_element_set_no": 999,
        "meta_rev_at_epoch": 88295,
        "meta_bstar": 0.00039403,
        "meta_mean_motion_dot": 1.337e-05,
        "meta_mean_motion_ddot": 0,
        "tle_line1": "1 34525U 97051HS  25361.11542896  .00001337  00000+0  39403-3 0  9999",
        "tle_line2": "2 34525  86.3716  40.7068 0006120  61.7573 356.7447 14.42939848882955"
      },
      "geometry": {
        "type": "Point",
        "coordinates": [
          -145.04359305844923,
          56.95242083369365
        ]
      }
    },
    {
      "type": "Feature",
      "properties": {
        "norad_id": 34529,
        "name": "IRIDIUM 33 DEB",
        "group": "iridium-33-debris",
        "lat": -75.31140701739083,
        "lon": -136.82706012646068,
        "alt_km": 766.1034608213431,
        "timestamp": "2025-12-27T11:23:20.286429+00:00",
        "meta_object_name": "IRIDIUM 33 DEB",
        "meta_object_id": "1997-051HW",
        "meta_epoch": "2025-12-27T01:52:15.197088",
        "meta_mean_motion": 14.40627936,
        "meta_eccentricity": 0.0006334,
        "meta_inclination": 86.3627,
        "meta_ra_of_asc_node": 29.2983,
        "meta_arg_of_pericenter": 136.9465,
        "meta_mean_anomaly": 223.2231,
        "meta_ephemeris_type": 0,
        "meta_classification_type": "U",
        "meta_norad_cat_id": 34529,
        "meta_element_set_no": 999,
        "meta_rev_at_epoch": 88348,
        "meta_bstar": 0.00015042,
        "meta_mean_motion_dot": 5e-06,
        "meta_mean_motion_ddot": 0,
        "tle_line1": "1 34529U 97051HW  25361.07795367  .00000500  00000+0  15042-3 0  9995",
        "tle_line2": "2 34529  86.3627  29.2983 0006334 136.9465 223.2231 14.40627936883488"
      },
      "geometry": {
        "type": "Point",
        "coordinates": [
          -136.82706012646068,
          -75.31140701739083
        ]
      }
    },
    {
      "type": "Feature",
      "properties": {
        "norad_id": 34538,
        "name": "IRIDIUM 33 DEB",
        "group": "iridium-33-debris",
        "lat": -22.079235894591882,
        "lon": -179.3856385434843,
        "alt_km": 748.915599055902,
        "timestamp": "2025-12-27T11:23:20.286439+00:00",
        "meta_object_name": "IRIDIUM 33 DEB",
        "meta_object_id": "1997-051JF",
        "meta_epoch": "2025-12-26T18:05:01.336416",
        "meta_mean_motion": 14.42730445,
        "meta_eccentricity": 0.0031825,
        "meta_inclination": 86.2767,
        "meta_ra_of_asc_node": 359.4165,
        "meta_arg_of_pericenter": 279.2395,
        "meta_mean_anomaly": 140.4767,
        "meta_ephemeris_type": 0,
        "meta_classification_type": "U",
        "meta_norad_cat_id": 34538,
        "meta_element_set_no": 999,
        "meta_rev_at_epoch": 87958,
        "meta_bstar": 0.00099526831,
        "meta_mean_motion_dot": 3.352e-05,
        "meta_mean_motion_ddot": 0,
        "tle_line1": "1 34538U 97051JF  25360.75348769  .00003352  00000+0  99527-3 0  9997",
        "tle_line2": "2 34538  86.2767 359.4165 0031825 279.2395 140.4767 14.42730445879580"
      },
      "geometry": {
        "type": "Point",
        "coordinates": [
          -179.3856385434843,
          -22.079235894591882
        ]
      }
    },
    {
      "type": "Feature",
      "properties": {
        "norad_id": 34540,
        "name": "IRIDIUM 33 DEB",
        "group": "iridium-33-debris",
        "lat": -16.91174641150903,
        "lon": 121.99389509721748,
        "alt_km": 647.2736491654186,
        "timestamp": "2025-12-27T11:23:20.286450+00:00",
        "meta_object_name": "IRIDIUM 33 DEB",
        "meta_object_id": "1997-051JH",
        "meta_epoch": "2025-12-27T02:26:44.045088",
        "meta_mean_motion": 14.75620073,
        "meta_eccentricity": 0.001856,
        "meta_inclination": 86.3107,
        "meta_ra_of_asc_node": 301.0402,
        "meta_arg_of_pericenter": 111.9699,
        "meta_mean_anomaly": 266.3781,
        "meta_ephemeris_type": 0,
        "meta_classification_type": "U",
        "meta_norad_cat_id": 34540,
        "meta_element_set_no": 999,
        "meta_rev_at_epoch": 89233,
        "meta_bstar": 0.0019663,
        "meta_mean_motion_dot": 0.00013489,
        "meta_mean_motion_ddot": 0,
        "tle_line1": "1 34540U 97051JH  25361.10189867  .00013489  00000+0  19663-2 0  9996",
        "tle_line2": "2 34540  86.3107 301.0402 0018560 111.9699 266.3781 14.75620073892332"
      },
      "geometry": {
        "type": "Point",
        "coordinates": [
          121.99389509721748,
          -16.91174641150903
        ]
      }
    }
  ]
}